[{"OBJECT_NAME":"ONEWEB-0142","OBJECT_ID":"2020-100AG","EPOCH":"2026-04-01T11:04:35.861088","MEAN_MOTION":13.12440955,"ECCENTRICITY":0.0001743,"INCLINATION":87.9015,"RA_OF_ASC_NODE":5.9051,"ARG_OF_PERICENTER":65.417,"MEAN_ANOMALY":294.714,"EPHEMERIS_TYPE":0,"CLASSIFICATION_TYPE":"U","NORAD_CAT_ID":47288,"ELEMENT_SET_NO":999,"REV_AT_EPOCH":25460,"BSTAR":-6.7471e-5,"MEAN_MOTION_DOT":-1.2e-7,"MEAN_MOTION_DDOT":0},{"OBJECT_NAME":"ONEWEB-0143","OBJECT_ID":"2020-100AH","EPOCH":"2026-04-01T11:19:02.059104","MEAN_MOTION":13.12441036,"ECCENTRICITY":0.0001749,"INCLINATION":87.9019,"RA_OF_ASC_NODE":5.8995,"ARG_OF_PERICENTER":77.6848,"MEAN_ANOMALY":282.4476,"EPHEMERIS_TYPE":0,"CLASSIFICATION_TYPE":"U","NORAD_CAT_ID":47289,"ELEMENT_SET_NO":999,"REV_AT_EPOCH":25458,"BSTAR":-0.00077809,"MEAN_MOTION_DOT":-2.67e-6,"MEAN_MOTION_DDOT":0},{"OBJECT_NAME":"ONEWEB-0144","OBJECT_ID":"2020-100AJ","EPOCH":"2026-04-01T12:27:22.150368","MEAN_MOTION":13.1244332,"ECCENTRICITY":0.0002022,"INCLINATION":87.9023,"RA_OF_ASC_NODE":5.8608,"ARG_OF_PERICENTER":69.9146,"MEAN_ANOMALY":290.22,"EPHEMERIS_TYPE":0,"CLASSIFICATION_TYPE":"U","NORAD_CAT_ID":47290,"ELEMENT_SET_NO":999,"REV_AT_EPOCH":25451,"BSTAR":0.0014192,"MEAN_MOTION_DOT":5.23e-6,"MEAN_MOTION_DDOT":0},{"OBJECT_NAME":"ONEWEB-0145","OBJECT_ID":"2020-100AK","EPOCH":"2026-04-01T06:16:32.418048","MEAN_MOTION":13.12445348,"ECCENTRICITY":0.0001818,"INCLINATION":87.9011,"RA_OF_ASC_NODE":5.9479,"ARG_OF_PERICENTER":75.2969,"MEAN_ANOMALY":284.8361,"EPHEMERIS_TYPE":0,"CLASSIFICATION_TYPE":"U","NORAD_CAT_ID":47291,"ELEMENT_SET_NO":999,"REV_AT_EPOCH":25467,"BSTAR":-0.00057941,"MEAN_MOTION_DOT":-1.96e-6,"MEAN_MOTION_DDOT":0},{"OBJECT_NAME":"ONEWEB-0146","OBJECT_ID":"2020-100AL","EPOCH":"2026-04-01T11:40:59.730816","MEAN_MOTION":13.12443853,"ECCENTRICITY":0.0001752,"INCLINATION":87.9021,"RA_OF_ASC_NODE":5.8895,"ARG_OF_PERICENTER":89.142,"MEAN_ANOMALY":270.9909,"EPHEMERIS_TYPE":0,"CLASSIFICATION_TYPE":"U","NORAD_CAT_ID":47292,"ELEMENT_SET_NO":999,"REV_AT_EPOCH":25461,"BSTAR":-0.00087765,"MEAN_MOTION_DOT":-3.03e-6,"MEAN_MOTION_DDOT":0},{"OBJECT_NAME":"ONEWEB-0147","OBJECT_ID":"2020-100AM","EPOCH":"2026-04-01T10:52:12.965376","MEAN_MOTION":13.12446914,"ECCENTRICITY":0.0001909,"INCLINATION":87.902,"RA_OF_ASC_NODE":5.8768,"ARG_OF_PERICENTER":79.3287,"MEAN_ANOMALY":280.8056,"EPHEMERIS_TYPE":0,"CLASSIFICATION_TYPE":"U","NORAD_CAT_ID":47293,"ELEMENT_SET_NO":999,"REV_AT_EPOCH":25450,"BSTAR":0.00076026,"MEAN_MOTION_DOT":2.86e-6,"MEAN_MOTION_DDOT":0},{"OBJECT_NAME":"ONEWEB-0115","OBJECT_ID":"2021-025A","EPOCH":"2026-04-01T09:19:42.375360","MEAN_MOTION":13.13468796,"ECCENTRICITY":0.0001724,"INCLINATION":87.9016,"RA_OF_ASC_NODE":335.5088,"ARG_OF_PERICENTER":83.0555,"MEAN_ANOMALY":277.077,"EPHEMERIS_TYPE":0,"CLASSIFICATION_TYPE":"U","NORAD_CAT_ID":48042,"ELEMENT_SET_NO":999,"REV_AT_EPOCH":24351,"BSTAR":-0.00055529,"MEAN_MOTION_DOT":-1.9e-6,"MEAN_MOTION_DDOT":0},{"OBJECT_NAME":"ONEWEB-0152","OBJECT_ID":"2021-025B","EPOCH":"2026-04-01T04:10:07.106304","MEAN_MOTION":13.13470303,"ECCENTRICITY":0.0001748,"INCLINATION":87.9013,"RA_OF_ASC_NODE":335.5514,"ARG_OF_PERICENTER":84.7773,"MEAN_ANOMALY":275.3555,"EPHEMERIS_TYPE":0,"CLASSIFICATION_TYPE":"U","NORAD_CAT_ID":48043,"ELEMENT_SET_NO":999,"REV_AT_EPOCH":24344,"BSTAR":-0.0010875,"MEAN_MOTION_DOT":-3.84e-6,"MEAN_MOTION_DDOT":0},{"OBJECT_NAME":"ONEWEB-0153","OBJECT_ID":"2021-025C","EPOCH":"2026-04-01T03:38:26.198304","MEAN_MOTION":13.13468127,"ECCENTRICITY":0.0001723,"INCLINATION":87.9007,"RA_OF_ASC_NODE":335.561,"ARG_OF_PERICENTER":77.5386,"MEAN_ANOMALY":282.5936,"EPHEMERIS_TYPE":0,"CLASSIFICATION_TYPE":"U","NORAD_CAT_ID":48044,"ELEMENT_SET_NO":999,"REV_AT_EPOCH":24343,"BSTAR":-0.00014626,"MEAN_MOTION_DOT":-4.1e-7,"MEAN_MOTION_DDOT":0},{"OBJECT_NAME":"ONEWEB-0154","OBJECT_ID":"2021-025D","EPOCH":"2026-04-01T05:23:16.170144","MEAN_MOTION":13.13469601,"ECCENTRICITY":0.0001832,"INCLINATION":87.9007,"RA_OF_ASC_NODE":335.5442,"ARG_OF_PERICENTER":81.9351,"MEAN_ANOMALY":278.1986,"EPHEMERIS_TYPE":0,"CLASSIFICATION_TYPE":"U","NORAD_CAT_ID":48045,"ELEMENT_SET_NO":999,"REV_AT_EPOCH":24340,"BSTAR":-2.9229e-5,"MEAN_MOTION_DOT":2.0e-8,"MEAN_MOTION_DDOT":0},{"OBJECT_NAME":"ONEWEB-0116","OBJECT_ID":"2021-025E","EPOCH":"2026-04-01T04:29:37.192992","MEAN_MOTION":13.13472622,"ECCENTRICITY":0.0001723,"INCLINATION":87.9016,"RA_OF_ASC_NODE":335.5412,"ARG_OF_PERICENTER":85.3299,"MEAN_ANOMALY":274.8027,"EPHEMERIS_TYPE":0,"CLASSIFICATION_TYPE":"U","NORAD_CAT_ID":48046,"ELEMENT_SET_NO":999,"REV_AT_EPOCH":24354,"BSTAR":0.00048347,"MEAN_MOTION_DOT":1.89e-6,"MEAN_MOTION_DDOT":0},{"OBJECT_NAME":"ONEWEB-0150","OBJECT_ID":"2021-025F","EPOCH":"2026-04-01T09:24:34.809984","MEAN_MOTION":13.13468737,"ECCENTRICITY":0.0001541,"INCLINATION":87.9017,"RA_OF_ASC_NODE":335.4984,"ARG_OF_PERICENTER":78.7406,"MEAN_ANOMALY":281.3897,"EPHEMERIS_TYPE":0,"CLASSIFICATION_TYPE":"U","NORAD_CAT_ID":48047,"ELEMENT_SET_NO":999,"REV_AT_EPOCH":24346,"BSTAR":-0.00072299,"MEAN_MOTION_DOT":-2.51e-6,"MEAN_MOTION_DDOT":0},{"OBJECT_NAME":"ONEWEB-0107","OBJECT_ID":"2021-025G","EPOCH":"2026-04-01T09:27:01.585440","MEAN_MOTION":13.13471175,"ECCENTRICITY":0.0001744,"INCLINATION":87.9016,"RA_OF_ASC_NODE":335.4931,"ARG_OF_PERICENTER":71.557,"MEAN_ANOMALY":288.5748,"EPHEMERIS_TYPE":0,"CLASSIFICATION_TYPE":"U","NORAD_CAT_ID":48048,"ELEMENT_SET_NO":999,"REV_AT_EPOCH":24344,"BSTAR":-0.00074201,"MEAN_MOTION_DOT":-2.58e-6,"MEAN_MOTION_DDOT":0},{"OBJECT_NAME":"ONEWEB-0101","OBJECT_ID":"2021-025H","EPOCH":"2026-04-01T10:23:05.767296","MEAN_MOTION":13.13471669,"ECCENTRICITY":0.0001831,"INCLINATION":87.9008,"RA_OF_ASC_NODE":335.509,"ARG_OF_PERICENTER":76.9305,"MEAN_ANOMALY":283.2029,"EPHEMERIS_TYPE":0,"CLASSIFICATION_TYPE":"U","NORAD_CAT_ID":48049,"ELEMENT_SET_NO":999,"REV_AT_EPOCH":24342,"BSTAR":0.00079965,"MEAN_MOTION_DOT":3.05e-6,"MEAN_MOTION_DDOT":0},{"OBJECT_NAME":"ONEWEB-0113","OBJECT_ID":"2021-025J","EPOCH":"2026-04-01T04:17:11.832288","MEAN_MOTION":13.13951037,"ECCENTRICITY":0.0001699,"INCLINATION":87.9015,"RA_OF_ASC_NODE":335.4766,"ARG_OF_PERICENTER":93.1408,"MEAN_ANOMALY":266.9916,"EPHEMERIS_TYPE":0,"CLASSIFICATION_TYPE":"U","NORAD_CAT_ID":48050,"ELEMENT_SET_NO":999,"REV_AT_EPOCH":24349,"BSTAR":-0.00024249,"MEAN_MOTION_DOT":-7.6e-7,"MEAN_MOTION_DDOT":0},{"OBJECT_NAME":"ONEWEB-0112","OBJECT_ID":"2021-025K","EPOCH":"2026-04-01T09:34:19.603200","MEAN_MOTION":13.13468717,"ECCENTRICITY":0.0001942,"INCLINATION":87.9016,"RA_OF_ASC_NODE":335.4894,"ARG_OF_PERICENTER":76.2196,"MEAN_ANOMALY":283.9149,"EPHEMERIS_TYPE":0,"CLASSIFICATION_TYPE":"U","NORAD_CAT_ID":48051,"ELEMENT_SET_NO":999,"REV_AT_EPOCH":24351,"BSTAR":-0.00066258,"MEAN_MOTION_DOT":-2.29e-6,"MEAN_MOTION_DDOT":0},{"OBJECT_NAME":"ONEWEB-0156","OBJECT_ID":"2021-025L","EPOCH":"2026-04-01T04:17:25.916352","MEAN_MOTION":13.13471661,"ECCENTRICITY":0.000166,"INCLINATION":87.9016,"RA_OF_ASC_NODE":335.5441,"ARG_OF_PERICENTER":76.3094,"MEAN_ANOMALY":283.822,"EPHEMERIS_TYPE":0,"CLASSIFICATION_TYPE":"U","NORAD_CAT_ID":48052,"ELEMENT_SET_NO":999,"REV_AT_EPOCH":24346,"BSTAR":-0.00050426,"MEAN_MOTION_DOT":-1.71e-6,"MEAN_MOTION_DDOT":0}]
