ONEWEB-0142             
1 47288U 20100AG  26091.46152617 -.00000012  00000+0 -67471-4 0  9995
2 47288  87.9015   5.9051 0001743  65.4170 294.7140 13.12440955254607
ONEWEB-0143             
1 47289U 20100AH  26091.47155161 -.00000267  00000+0 -77809-3 0  9991
2 47289  87.9019   5.8995 0001749  77.6848 282.4476 13.12441036254585
ONEWEB-0144             
1 47290U 20100AJ  26091.51900637  .00000523  00000+0  14192-2 0  9992
2 47290  87.9023   5.8608 0002022  69.9146 290.2200 13.12443320254516
ONEWEB-0145             
1 47291U 20100AK  26091.26148632 -.00000196  00000+0 -57941-3 0  9992
2 47291  87.9011   5.9479 0001818  75.2969 284.8361 13.12445348254672
ONEWEB-0146             
1 47292U 20100AL  26091.48680244 -.00000303  00000+0 -87765-3 0  9994
2 47292  87.9021   5.8895 0001752  89.1420 270.9909 13.12443853254615
ONEWEB-0147             
1 47293U 20100AM  26091.45292784  .00000286  00000+0  76026-3 0  9996
2 47293  87.9020   5.8768 0001909  79.3287 280.8056 13.12446914254502
ONEWEB-0115             
1 48042U 21025A   26091.38868490 -.00000190  00000+0 -55529-3 0  9992
2 48042  87.9016 335.5088 0001724  83.0555 277.0770 13.13468796243516
ONEWEB-0152             
1 48043U 21025B   26091.17369336 -.00000384  00000+0 -10875-2 0  9994
2 48043  87.9013 335.5514 0001748  84.7773 275.3555 13.13470303243445
ONEWEB-0153             
1 48044U 21025C   26091.15169211 -.00000041  00000+0 -14626-3 0  9992
2 48044  87.9007 335.5610 0001723  77.5386 282.5936 13.13468127243432
ONEWEB-0154             
1 48045U 21025D   26091.22449271  .00000002  00000+0 -29229-4 0  9990
2 48045  87.9007 335.5442 0001832  81.9351 278.1986 13.13469601243409
ONEWEB-0116             
1 48046U 21025E   26091.18723603  .00000189  00000+0  48347-3 0  9996
2 48046  87.9016 335.5412 0001723  85.3299 274.8027 13.13472622243546
ONEWEB-0150             
1 48047U 21025F   26091.39206956 -.00000251  00000+0 -72299-3 0  9992
2 48047  87.9017 335.4984 0001541  78.7406 281.3897 13.13468737243466
ONEWEB-0107             
1 48048U 21025G   26091.39376835 -.00000258  00000+0 -74201-3 0  9999
2 48048  87.9016 335.4931 0001744  71.5570 288.5748 13.13471175243448
ONEWEB-0101             
1 48049U 21025H   26091.43270564  .00000305  00000+0  79965-3 0  9990
2 48049  87.9008 335.5090 0001831  76.9305 283.2029 13.13471669243429
ONEWEB-0113             
1 48050U 21025J   26091.17860917 -.00000076  00000+0 -24249-3 0  9992
2 48050  87.9015 335.4766 0001699  93.1408 266.9916 13.13951037243497
ONEWEB-0112             
1 48051U 21025K   26091.39883800 -.00000229  00000+0 -66258-3 0  9999
2 48051  87.9016 335.4894 0001942  76.2196 283.9149 13.13468717243516
ONEWEB-0156             
1 48052U 21025L   26091.17877218 -.00000171  00000+0 -50426-3 0  9998
2 48052  87.9016 335.5441 0001660  76.3094 283.8220 13.13471661243466
